[{"OBJECT_NAME":"COSMOS 2433 (720)","OBJECT_ID":"2007-052A","EPOCH":"2026-03-31T00:27:15.111360","MEAN_MOTION":2.13103725,"ECCENTRICITY":9.347e-5,"INCLINATION":65.6193,"RA_OF_ASC_NODE":318.5652,"ARG_OF_PERICENTER":250.3488,"MEAN_ANOMALY":109.6996,"EPHEMERIS_TYPE":0,"CLASSIFICATION_TYPE":"U","NORAD_CAT_ID":32275,"ELEMENT_SET_NO":999,"REV_AT_EPOCH":14339,"BSTAR":0,"MEAN_MOTION_DOT":-3.5e-7,"MEAN_MOTION_DDOT":0},{"OBJECT_NAME":"COSMOS 2432 (719)","OBJECT_ID":"2007-052B","EPOCH":"2026-04-03T02:37:19.913664","MEAN_MOTION":2.1310319,"ECCENTRICITY":0.00097356,"INCLINATION":65.634,"RA_OF_ASC_NODE":318.5873,"ARG_OF_PERICENTER":335.9075,"MEAN_ANOMALY":179.0883,"EPHEMERIS_TYPE":0,"CLASSIFICATION_TYPE":"U","NORAD_CAT_ID":32276,"ELEMENT_SET_NO":999,"REV_AT_EPOCH":14348,"BSTAR":0,"MEAN_MOTION_DOT":-4.6e-7,"MEAN_MOTION_DDOT":0},{"OBJECT_NAME":"COSMOS 2434 (721)","OBJECT_ID":"2007-065A","EPOCH":"2026-04-03T10:57:57.930336","MEAN_MOTION":2.13101374,"ECCENTRICITY":0.00022557,"INCLINATION":64.3164,"RA_OF_ASC_NODE":194.435,"ARG_OF_PERICENTER":60.204,"MEAN_ANOMALY":307.5513,"EPHEMERIS_TYPE":0,"CLASSIFICATION_TYPE":"U","NORAD_CAT_ID":32393,"ELEMENT_SET_NO":999,"REV_AT_EPOCH":14218,"BSTAR":0,"MEAN_MOTION_DOT":1.4e-7,"MEAN_MOTION_DDOT":0},{"OBJECT_NAME":"COSMOS 2436 (723)","OBJECT_ID":"2007-065C","EPOCH":"2026-04-04T15:52:33.448800","MEAN_MOTION":2.13100259,"ECCENTRICITY":0.0017261,"INCLINATION":64.325,"RA_OF_ASC_NODE":194.4655,"ARG_OF_PERICENTER":2.7751,"MEAN_ANOMALY":341.7064,"EPHEMERIS_TYPE":0,"CLASSIFICATION_TYPE":"U","NORAD_CAT_ID":32395,"ELEMENT_SET_NO":999,"REV_AT_EPOCH":14215,"BSTAR":0,"MEAN_MOTION_DOT":1.8e-7,"MEAN_MOTION_DDOT":0},{"OBJECT_NAME":"COSMOS 2456 (730)","OBJECT_ID":"2009-070A","EPOCH":"2026-04-04T07:35:35.337408","MEAN_MOTION":2.13103577,"ECCENTRICITY":0.00065131,"INCLINATION":64.9694,"RA_OF_ASC_NODE":73.4901,"ARG_OF_PERICENTER":311.2364,"MEAN_ANOMALY":153.5936,"EPHEMERIS_TYPE":0,"CLASSIFICATION_TYPE":"U","NORAD_CAT_ID":36111,"ELEMENT_SET_NO":999,"REV_AT_EPOCH":12685,"BSTAR":0,"MEAN_MOTION_DOT":-7.0e-8,"MEAN_MOTION_DDOT":0},{"OBJECT_NAME":"COSMOS 2457 (733)","OBJECT_ID":"2009-070B","EPOCH":"2026-04-04T00:14:51.575424","MEAN_MOTION":2.13100936,"ECCENTRICITY":0.00014904,"INCLINATION":64.9547,"RA_OF_ASC_NODE":73.3459,"ARG_OF_PERICENTER":193.6954,"MEAN_ANOMALY":164.4243,"EPHEMERIS_TYPE":0,"CLASSIFICATION_TYPE":"U","NORAD_CAT_ID":36112,"ELEMENT_SET_NO":999,"REV_AT_EPOCH":12684,"BSTAR":0,"MEAN_MOTION_DOT":-8.0e-8,"MEAN_MOTION_DDOT":0},{"OBJECT_NAME":"COSMOS 2460 (732)","OBJECT_ID":"2010-007C","EPOCH":"2026-04-01T10:14:24.085824","MEAN_MOTION":2.13106036,"ECCENTRICITY":0.00021604,"INCLINATION":65.4638,"RA_OF_ASC_NODE":317.0651,"ARG_OF_PERICENTER":48.1331,"MEAN_ANOMALY":129.1168,"EPHEMERIS_TYPE":0,"CLASSIFICATION_TYPE":"U","NORAD_CAT_ID":36402,"ELEMENT_SET_NO":999,"REV_AT_EPOCH":12509,"BSTAR":0,"MEAN_MOTION_DOT":-3.9e-7,"MEAN_MOTION_DDOT":0},{"OBJECT_NAME":"COSMOS 2476 (744)","OBJECT_ID":"2011-064A","EPOCH":"2026-04-03T14:17:38.126688","MEAN_MOTION":2.13103623,"ECCENTRICITY":0.0024793,"INCLINATION":65.2287,"RA_OF_ASC_NODE":75.3878,"ARG_OF_PERICENTER":242.3223,"MEAN_ANOMALY":297.8742,"EPHEMERIS_TYPE":0,"CLASSIFICATION_TYPE":"U","NORAD_CAT_ID":37867,"ELEMENT_SET_NO":999,"REV_AT_EPOCH":11217,"BSTAR":0,"MEAN_MOTION_DOT":-4.0e-8,"MEAN_MOTION_DDOT":0},{"OBJECT_NAME":"COSMOS 2477 (745)","OBJECT_ID":"2011-064B","EPOCH":"2026-04-02T10:29:18.592800","MEAN_MOTION":2.13102755,"ECCENTRICITY":0.00218835,"INCLINATION":65.2346,"RA_OF_ASC_NODE":75.5056,"ARG_OF_PERICENTER":243.9509,"MEAN_ANOMALY":308.0017,"EPHEMERIS_TYPE":0,"CLASSIFICATION_TYPE":"U","NORAD_CAT_ID":37868,"ELEMENT_SET_NO":999,"REV_AT_EPOCH":11214,"BSTAR":0,"MEAN_MOTION_DOT":-1.0e-8,"MEAN_MOTION_DDOT":0},{"OBJECT_NAME":"COSMOS 2475 (743)","OBJECT_ID":"2011-064C","EPOCH":"2026-04-02T11:31:01.404768","MEAN_MOTION":2.13101572,"ECCENTRICITY":0.00278306,"INCLINATION":65.2414,"RA_OF_ASC_NODE":75.5251,"ARG_OF_PERICENTER":255.4078,"MEAN_ANOMALY":284.8639,"EPHEMERIS_TYPE":0,"CLASSIFICATION_TYPE":"U","NORAD_CAT_ID":37869,"ELEMENT_SET_NO":999,"REV_AT_EPOCH":11215,"BSTAR":0,"MEAN_MOTION_DOT":-1.0e-8,"MEAN_MOTION_DDOT":0},{"OBJECT_NAME":"COSMOS 2485 (747)","OBJECT_ID":"2013-019A","EPOCH":"2026-04-03T07:08:48.331104","MEAN_MOTION":2.13103023,"ECCENTRICITY":0.00250981,"INCLINATION":65.3788,"RA_OF_ASC_NODE":76.1162,"ARG_OF_PERICENTER":237.7826,"MEAN_ANOMALY":121.9613,"EPHEMERIS_TYPE":0,"CLASSIFICATION_TYPE":"U","NORAD_CAT_ID":39155,"ELEMENT_SET_NO":999,"REV_AT_EPOCH":10068,"BSTAR":0,"MEAN_MOTION_DOT":-3.0e-8,"MEAN_MOTION_DDOT":0},{"OBJECT_NAME":"COSMOS 2492 (754)","OBJECT_ID":"2014-012A","EPOCH":"2026-04-03T06:09:42.791328","MEAN_MOTION":2.13103206,"ECCENTRICITY":0.0012343,"INCLINATION":65.34,"RA_OF_ASC_NODE":316.4836,"ARG_OF_PERICENTER":329.783,"MEAN_ANOMALY":30.1983,"EPHEMERIS_TYPE":0,"CLASSIFICATION_TYPE":"U","NORAD_CAT_ID":39620,"ELEMENT_SET_NO":999,"REV_AT_EPOCH":9364,"BSTAR":0,"MEAN_MOTION_DOT":-4.5e-7,"MEAN_MOTION_DDOT":0},{"OBJECT_NAME":"COSMOS 2500 (755)","OBJECT_ID":"2014-032A","EPOCH":"2026-04-02T22:59:49.674048","MEAN_MOTION":2.13105929,"ECCENTRICITY":0.00051372,"INCLINATION":65.2756,"RA_OF_ASC_NODE":316.2469,"ARG_OF_PERICENTER":188.3777,"MEAN_ANOMALY":171.6663,"EPHEMERIS_TYPE":0,"CLASSIFICATION_TYPE":"U","NORAD_CAT_ID":40001,"ELEMENT_SET_NO":999,"REV_AT_EPOCH":9185,"BSTAR":0,"MEAN_MOTION_DOT":-4.4e-7,"MEAN_MOTION_DDOT":0},{"OBJECT_NAME":"COSMOS 2501 (702K)","OBJECT_ID":"2014-075A","EPOCH":"2026-03-25T07:16:41.300256","MEAN_MOTION":2.13101287,"ECCENTRICITY":0.00211828,"INCLINATION":63.6158,"RA_OF_ASC_NODE":193.2737,"ARG_OF_PERICENTER":207.3153,"MEAN_ANOMALY":152.5805,"EPHEMERIS_TYPE":0,"CLASSIFICATION_TYPE":"U","NORAD_CAT_ID":40315,"ELEMENT_SET_NO":999,"REV_AT_EPOCH":8806,"BSTAR":0,"MEAN_MOTION_DOT":1.0e-8,"MEAN_MOTION_DDOT":0},{"OBJECT_NAME":"COSMOS 2514 (751)","OBJECT_ID":"2016-008A","EPOCH":"2026-04-01T07:50:17.610144","MEAN_MOTION":2.13102702,"ECCENTRICITY":0.00090385,"INCLINATION":65.0661,"RA_OF_ASC_NODE":315.6458,"ARG_OF_PERICENTER":202.4041,"MEAN_ANOMALY":157.6117,"EPHEMERIS_TYPE":0,"CLASSIFICATION_TYPE":"U","NORAD_CAT_ID":41330,"ELEMENT_SET_NO":999,"REV_AT_EPOCH":7898,"BSTAR":0,"MEAN_MOTION_DOT":-3.7e-7,"MEAN_MOTION_DDOT":0},{"OBJECT_NAME":"COSMOS 2522 (752)","OBJECT_ID":"2017-055A","EPOCH":"2026-03-28T21:06:38.934720","MEAN_MOTION":2.13101664,"ECCENTRICITY":0.00080509,"INCLINATION":64.078,"RA_OF_ASC_NODE":194.6153,"ARG_OF_PERICENTER":231.2616,"MEAN_ANOMALY":128.6626,"EPHEMERIS_TYPE":0,"CLASSIFICATION_TYPE":"U","NORAD_CAT_ID":42939,"ELEMENT_SET_NO":999,"REV_AT_EPOCH":6626,"BSTAR":0,"MEAN_MOTION_DOT":-3.6e-7,"MEAN_MOTION_DDOT":0},{"OBJECT_NAME":"COSMOS 2527 (756)","OBJECT_ID":"2018-053A","EPOCH":"2026-04-03T22:35:27.926880","MEAN_MOTION":2.13102059,"ECCENTRICITY":0.00092117,"INCLINATION":65.5376,"RA_OF_ASC_NODE":76.3822,"ARG_OF_PERICENTER":248.0419,"MEAN_ANOMALY":111.8465,"EPHEMERIS_TYPE":0,"CLASSIFICATION_TYPE":"U","NORAD_CAT_ID":43508,"ELEMENT_SET_NO":999,"REV_AT_EPOCH":6069,"BSTAR":0,"MEAN_MOTION_DOT":-2.0e-8,"MEAN_MOTION_DDOT":0}]
