COSMOS 2433 (720)       
1 32275U 07052A   26090.01892490 -.00000035  00000+0  00000+0 0  9990
2 32275  65.6193 318.5652 0000934 250.3488 109.6996  2.13103725143391
COSMOS 2432 (719)       
1 32276U 07052B   26093.10925826 -.00000046  00000+0  00000+0 0  9996
2 32276  65.6340 318.5873 0009735 335.9075 179.0883  2.13103190143483
COSMOS 2434 (721)       
1 32393U 07065A   26093.45692049  .00000014  00000+0  00000+0 0  9990
2 32393  64.3164 194.4350 0002255  60.2040 307.5513  2.13101374142180
COSMOS 2436 (723)       
1 32395U 07065C   26094.66149825  .00000018  00000+0  00000+0 0  9999
2 32395  64.3250 194.4655 0017261   2.7751 341.7064  2.13100259142158
COSMOS 2456 (730)       
1 36111U 09070A   26094.31638122 -.00000007  00000+0  00000+0 0  9991
2 36111  64.9694  73.4901 0006513 311.2364 153.5936  2.13103577126854
COSMOS 2457 (733)       
1 36112U 09070B   26094.01031916 -.00000008  00000+0  00000+0 0  9998
2 36112  64.9547  73.3459 0001490 193.6954 164.4243  2.13100936126842
COSMOS 2460 (732)       
1 36402U 10007C   26091.42666766 -.00000039  00000+0  00000+0 0  9995
2 36402  65.4638 317.0651 0002160  48.1331 129.1168  2.13106036125098
COSMOS 2476 (744)       
1 37867U 11064A   26093.59558017 -.00000004  00000+0  00000+0 0  9996
2 37867  65.2287  75.3878 0024793 242.3223 297.8742  2.13103623112176
COSMOS 2477 (745)       
1 37868U 11064B   26092.43702075 -.00000001  00000+0  00000+0 0  9991
2 37868  65.2346  75.5056 0021883 243.9509 308.0017  2.13102755112146
COSMOS 2475 (743)       
1 37869U 11064C   26092.47987737 -.00000001  00000+0  00000+0 0  9996
2 37869  65.2414  75.5251 0027830 255.4078 284.8639  2.13101572112155
COSMOS 2485 (747)       
1 39155U 13019A   26093.29778161 -.00000003  00000+0  00000+0 0  9990
2 39155  65.3788  76.1162 0025098 237.7826 121.9613  2.13103023100687
COSMOS 2492 (754)       
1 39620U 14012A   26093.25674527 -.00000045  00000+0  00000+0 0  9994
2 39620  65.3400 316.4836 0012343 329.7830  30.1983  2.13103206 93640
COSMOS 2500 (755)       
1 40001U 14032A   26092.95821382 -.00000044  00000+0  00000+0 0  9999
2 40001  65.2756 316.2469 0005137 188.3777 171.6663  2.13105929 91851
COSMOS 2501 (702K)      
1 40315U 14075A   26084.30325579  .00000001  00000+0  00000+0 0  9993
2 40315  63.6158 193.2737 0021182 207.3153 152.5805  2.13101287 88064
COSMOS 2514 (751)       
1 41330U 16008A   26091.32659271 -.00000037  00000+0  00000+0 0  9998
2 41330  65.0661 315.6458 0009038 202.4041 157.6117  2.13102702 78980
COSMOS 2522 (752)       
1 42939U 17055A   26087.87961730 -.00000036  00000+0  00000+0 0  9997
2 42939  64.0780 194.6153 0008050 231.2616 128.6626  2.13101664 66262
COSMOS 2527 (756)       
1 43508U 18053A   26093.94129545 -.00000002  00000+0  00000+0 0  9997
2 43508  65.5376  76.3822 0009211 248.0419 111.8465  2.13102059 60693
